[{"OBJECT_NAME":"STARLINK-33710","OBJECT_ID":"2025-069B","EPOCH":"2026-03-09T10:37:03.023904","MEAN_MOTION":15.30193173,"ECCENTRICITY":0.00011585,"INCLINATION":53.1581,"RA_OF_ASC_NODE":143.8621,"ARG_OF_PERICENTER":74.9233,"MEAN_ANOMALY":285.1896,"EPHEMERIS_TYPE":0,"CLASSIFICATION_TYPE":"U","NORAD_CAT_ID":63434,"ELEMENT_SET_NO":999,"REV_AT_EPOCH":5336,"BSTAR":0.00063432923,"MEAN_MOTION_DOT":0.00018471,"MEAN_MOTION_DDOT":0},{"OBJECT_NAME":"OBJECT N","OBJECT_ID":"2019-093N","EPOCH":"2026-03-09T21:41:56.087232","MEAN_MOTION":15.29897693,"ECCENTRICITY":0.0006278,"INCLINATION":98.0505,"RA_OF_ASC_NODE":226.9456,"ARG_OF_PERICENTER":33.3806,"MEAN_ANOMALY":326.7828,"EPHEMERIS_TYPE":0,"CLASSIFICATION_TYPE":"U","NORAD_CAT_ID":44891,"ELEMENT_SET_NO":999,"REV_AT_EPOCH":33957,"BSTAR":0.0010567776,"MEAN_MOTION_DOT":0.00030617,"MEAN_MOTION_DDOT":0}]
